{"type": "FeatureCollection", "features": [{"type": "Feature", "properties": {"id": "mez", "name": "Medimurska", "name_en": "Međimurje", "iso_3166_2": "HR-20"}, "geometry": {"type": "Polygon", "coordinates": [[[16.515301554000075, 46.50171051000011], [16.65927209500009, 46.46419342100002], [16.755080200000123, 46.381872864000044], [16.769342895000108, 46.396109721000116], [16.850474894000058, 46.37306203200005], [16.814973993355068, 46.28441030469179], [16.72045779768922, 46.31138540291397], [16.483831413988526, 46.30177358738115], [16.358774447582675, 46.32063548414027], [16.250924927000142, 46.40499806800004], [16.23490523300009, 46.49333892800003], [16.34414921000007, 46.546979065000116], [16.491116984000115, 46.51514638300007], [16.515301554000075, 46.50171051000011]]]}}, {"type": "Feature", "properties": {"id": "vpz", "name": "Viroviticko-Podravska", "name_en": "Virovitica-Podravina", "iso_3166_2": "HR-10"}, "geometry": {"type": "Polygon", "coordinates": [[[17.306613212929392, 45.97991405209183], [17.337887003000077, 45.98463612900012], [17.345328410000093, 45.95569732700007], [17.389150024000116, 45.96308705700007], [17.406203247000036, 45.94365671800007], [17.55430790200009, 45.94779083200011], [17.638437134000128, 45.90133372000007], [17.664688761000065, 45.84164744100006], [17.809176066000134, 45.81441396100006], [17.858061971000012, 45.77172922800007], [17.906234389000133, 45.7921414180001], [17.943690627420494, 45.726614895061346], [18.083216993969074, 45.63029002516453], [17.925552199274534, 45.49236562817117], [17.79925499762004, 45.47138499612066], [17.51710167819988, 45.57633983051875], [17.50035851403419, 45.55535919936756], [17.430543654366147, 45.57468618412008], [17.489816521615182, 45.69302521394246], [17.432248975809557, 45.71860504818443], [17.385223423322316, 45.702533678486475], [17.35793826673762, 45.753589993283526], [17.321764764132524, 45.75054108290465], [17.277219679444613, 45.803302720943805], [17.133714227429664, 45.888517158540026], [17.135109491409878, 45.91585399016947], [17.19779300334443, 45.972698066462556], [17.305641716691866, 45.97931264935926], [17.306613212929392, 45.97991405209183]]]}}, {"type": "Feature", "properties": {"id": "ksz", "name": "Koprivničko-Križevačka", "name_en": "Koprivnica-Križevci", "iso_3166_2": "HR-06"}, "geometry": {"type": "Polygon", "coordinates": [[[16.879311877000134, 46.312061961000055], [17.052943156000055, 46.153463032999994], [17.208592570000064, 46.11656606000007], [17.27587528500004, 46.01202463800006], [17.316803019000048, 45.99765859000006], [17.29013798000011, 45.99145741800008], [17.305641716691866, 45.97931264935926], [17.192522006685238, 45.969597480139555], [17.135109491409878, 45.91585399016947], [17.14038048716975, 45.87027537670724], [17.050515171438008, 45.93476756377203], [16.99620324068701, 45.92711945210101], [16.994342888713334, 45.96101919248173], [16.910730421571657, 46.00070669255979], [16.91584638770064, 46.03279775691095], [16.858898960418685, 46.07956492787912], [16.80520714729198, 46.0463886579102], [16.741128371377215, 46.045716865241104], [16.697203403414335, 45.98106964854543], [16.692552524379494, 45.92422557225234], [16.603772414265507, 45.92572418902006], [16.514113804108774, 45.97765900296059], [16.469413689789917, 45.95884878214554], [16.443627149972997, 46.004065660401864], [16.35923953557608, 46.02463288040309], [16.349627720043202, 46.12250804301175], [16.485071649237227, 46.142868557437964], [16.596020948907665, 46.20312327751719], [16.69549808107155, 46.21020294930662], [16.770583937398783, 46.268907375774745], [16.745159132787705, 46.305700995104814], [16.811873407032067, 46.28187816004902], [16.859410684555428, 46.36475790905024], [16.87176558400003, 46.32719919900008], [16.879311877000134, 46.312061961000055]]]}}, {"type": "Feature", "properties": {"id": "obz", "name": "Osjecko-Baranjska", "name_en": "Osijek-Baranja", "iso_3166_2": "HR-14"}, "geometry": {"type": "Polygon", "coordinates": [[[18.82245067200003, 45.90558190400013], [18.90130578600008, 45.93120269800001], [18.87288374800005, 45.89523590100002], [18.906990194000116, 45.8679507450001], [18.855313761000076, 45.85735707600013], [18.84497847500006, 45.81570587200012], [18.968485148000127, 45.66873809800008], [18.91236454200009, 45.619232076000046], [18.903579549000085, 45.573085022], [18.94171675700005, 45.53892690000002], [19.018094523000116, 45.56740061400005], [19.106254517000053, 45.51164174500009], [19.07721236200007, 45.491642965000054], [19.009619588000106, 45.49867095900008], [18.98677941273968, 45.43531484630307], [18.938513625003793, 45.43247264329784], [18.861050652765414, 45.48130687091532], [18.78829023640526, 45.460274562920745], [18.803173048597273, 45.4285969097196], [18.786894972425046, 45.41355906789664], [18.661372918025734, 45.39557567028095], [18.629385207361395, 45.31888784439849], [18.51192467578312, 45.29258453974467], [18.507428827278545, 45.249641425511356], [18.56670169362826, 45.23258820208383], [18.548253208019105, 45.19052358699395], [18.326664666141426, 45.246385810456786], [18.200987583010544, 45.22540517840622], [18.08161502441385, 45.27150055580597], [18.10957197366764, 45.31227326150179], [18.075878940660573, 45.35056549670031], [18.16295372933115, 45.41252554002165], [18.304443800640854, 45.461824856531905], [18.443970168088754, 45.47743113913572], [18.394309116372597, 45.52295807575456], [18.36469852072014, 45.494174303301406], [18.225482211634755, 45.51350128805399], [18.194269647326337, 45.53510203682953], [18.22300174293605, 45.57323924419575], [18.20765384275063, 45.59773387281996], [18.016606073411538, 45.669719142824135], [17.988235711209086, 45.71390249320547], [17.943690627420494, 45.726614895061346], [17.906234389000133, 45.7921414180001], [18.08047733500004, 45.77172922800007], [18.211218709000065, 45.78537180600007], [18.40438521300007, 45.741808574000046], [18.57347049900011, 45.81668772400009], [18.655636027000128, 45.90758656800007], [18.775525350000095, 45.88283355700007], [18.81779667200007, 45.905467835000096], [18.82245067200003, 45.90558190400013]]]}}, {"type": "Feature", "properties": {"id": "isz", "name": "Istarska", "name_en": "Istria", "iso_3166_2": "HR-18"}, "geometry": {"type": "Polygon", "coordinates": [[[13.642820334798104, 45.459447780786306], [13.759294068000145, 45.463169251000025], [13.889001912000083, 45.423636779999995], [13.982639608000056, 45.475313212000046], [13.96145227000008, 45.493141581000074], [13.971890910000127, 45.51422556600001], [14.117320712000065, 45.47297572500007], [14.12986657128522, 45.440947577268844], [14.203557162732864, 45.403947252363764], [14.201541782027618, 45.17796621386964], [14.234681653735322, 45.154574259294634], [14.209239129000082, 45.12636953300006], [14.17937259200005, 45.13450755400004], [14.19312584700009, 45.10561758000006], [14.14389082100007, 45.05939362200007], [14.16374759200005, 44.995754299000055], [14.068858269000089, 44.94953034100007], [14.083832227000073, 44.986395575000074], [14.040293816000087, 45.03896719000005], [14.04428144600007, 45.00141022300005], [14.075694207000083, 44.983710028000075], [14.034678582000083, 44.956366278000075], [14.020518425000091, 44.90110911700003], [13.972666863000086, 44.90110911700003], [13.993011915000068, 44.881293036000045], [13.972666863000086, 44.82664622600004], [14.000010613000086, 44.81305573100008], [13.890147332000083, 44.83348216400009], [13.917979363000086, 44.77826569200005], [13.903168165000068, 44.77240631700005], [13.896983269000089, 44.81305573100008], [13.787119988000086, 44.875067450000074], [13.842295769000089, 44.88812897300005], [13.79460696700005, 44.894964911000045], [13.808116082000083, 44.91543203300006], [13.774099155000044, 44.96381256700005], [13.623220248000052, 45.07306549700007], [13.636892123000052, 45.09357330900008], [13.612559441000087, 45.11786530200004], [13.72624759200005, 45.13450755400004], [13.600596550000091, 45.13727448100008], [13.582286004000082, 45.196600653000075], [13.595225457000083, 45.25079987200007], [13.575450066000087, 45.264878648000035], [13.602712436000047, 45.28534577000005], [13.575450066000087, 45.30646393400008], [13.609548373000052, 45.32013580900008], [13.541270379000082, 45.346136786000045], [13.554942254000082, 45.36733633000006], [13.501475457000083, 45.49860260600008], [13.51335696700005, 45.51190827000005], [13.624106924762254, 45.46274523643508], [13.642820334798104, 45.459447780786306]]]}}, {"type": "Feature", "properties": {"id": "dnz", "name": "Dubrovacko-Neretvanska", "name_en": "Dubrovnik-Neretva", "iso_3166_2": "HR-19"}, "geometry": {"type": "Polygon", "coordinates": [[[18.43735477700011, 42.55921213800009], [18.437148071000053, 42.49340220200013], [18.496429884000065, 42.41632721600007], [18.238942905000044, 42.55906810100004], [18.217539910000085, 42.62010325700004], [18.076019727000073, 42.65131256700005], [18.043223504000082, 42.702053127000056], [18.02833092500009, 42.69131094000005], [17.901621941000087, 42.75189850500004], [17.880707227000073, 42.768744208000044], [17.892832879000082, 42.79083893400008], [17.806651238000086, 42.81191640800006], [17.780121290000068, 42.796942450000074], [17.720957879000082, 42.826239325000074], [17.748708530000044, 42.77204010600008], [17.728770379000082, 42.800767320000034], [17.44044030000009, 42.87335846600007], [17.44271894600007, 42.89862702000005], [17.417246941000087, 42.91120026200008], [17.21387780000009, 42.98261139500005], [17.027517123000052, 43.003566799000055], [17.00163821700005, 43.05149974200003], [17.07325280000009, 43.02415599200003], [17.240244988000086, 43.022772528000075], [17.390472852000073, 42.977728583000044], [17.460215691000087, 42.92177969000005], [17.558929884000065, 42.91282786700003], [17.741465691000087, 42.83926015800006], [17.701914910000085, 42.868475653000075], [17.707367384000065, 42.88703034100007], [17.65333092500009, 42.89093659100007], [17.665928996000105, 42.905160014], [17.81175988700005, 42.90986257000007], [17.858475382000023, 42.81697418200004], [18.22413781700007, 42.62807098500012], [18.42102502500009, 42.563630473], [18.43735477700011, 42.55921213800009]]]}}, {"type": "Feature", "properties": {"id": "smz", "name": "Sisacko-Moslavacka", "name_en": "Sisak-Moslavina", "iso_3166_2": "HR-03"}, "geometry": {"type": "Polygon", "coordinates": [[[16.947316529000148, 45.23568959600003], [16.924372193000124, 45.28452382500008], [16.7862927650001, 45.17884552100007], [16.528944133000095, 45.22225372400008], [16.48191857900011, 45.1995160930001], [16.435513143000094, 45.13285349600007], [16.389211060000036, 45.11683380100003], [16.34063521300004, 45.005936178000084], [16.31624393700008, 45.00123362300012], [16.212994426000137, 45.031464335000024], [16.00845910600006, 45.218171285000054], [15.802568518622195, 45.19647338204095], [15.636441277942595, 45.21274445249446], [15.68067630426799, 45.35056549670031], [15.65752526188129, 45.41872671176833], [15.820926141228426, 45.40213857723353], [15.842526890003967, 45.46590729388646], [15.812864618407389, 45.523423162848644], [15.85430911587298, 45.549881497133356], [15.922883742091017, 45.51127920177373], [15.935906203208674, 45.47479564080618], [16.046545443617333, 45.47588084642388], [16.10907392682026, 45.50450958924614], [16.049180941946872, 45.597475491300884], [16.15361901240749, 45.63437246431778], [16.227051222336, 45.59835399044425], [16.264878371339762, 45.60450348624687], [16.297331169997506, 45.64227895840719], [16.29392052621131, 45.72785513030999], [16.37024661598855, 45.745115058413205], [16.381563754763476, 45.81203603823258], [16.433705275178284, 45.823094793689734], [16.51147830577918, 45.75400340443355], [16.505070427558167, 45.71545278591731], [16.78670698394012, 45.61318512579288], [16.86727054160218, 45.526523749171645], [16.829236687922787, 45.50781688114415], [16.843241000971375, 45.48905833627316], [16.929178908080132, 45.47588084642388], [17.022919955591476, 45.418623358980824], [17.05749148864129, 45.425186265933405], [17.051445347424817, 45.384723619499425], [17.14379113095589, 45.341935533098365], [17.18120486791031, 45.347929999270036], [17.19887820806281, 45.29222280543809], [17.084208205344396, 45.225715236768735], [17.124628432556108, 45.169057755411075], [17.036303344000146, 45.230470276000105], [17.008294718000116, 45.21615590500001], [17.008294718000116, 45.24416453100012], [16.96798710100009, 45.23729156600005], [16.947316529000148, 45.23568959600003]]]}}, {"type": "Feature", "properties": {"id": "bpz", "name": "Brodsko-Posavska", "name_en": "Brod-Posavina", "iso_3166_2": "HR-12"}, "geometry": {"type": "Polygon", "coordinates": [[[17.18709517400012, 45.148563131000046], [17.124628432556108, 45.169057755411075], [17.0815727070148, 45.21610342123586], [17.15076744995781, 45.28111237223817], [17.19887820806281, 45.29222280543809], [17.18120486791031, 45.347929999270036], [17.237325473791543, 45.37878082927182], [17.391579623800567, 45.387255764142196], [17.577149691804834, 45.27682322930855], [17.701638218329094, 45.25873647710671], [17.708769566062585, 45.19352082052944], [17.728458286021066, 45.18747467751433], [17.854652133988793, 45.229384263872646], [17.91857588117199, 45.28860545517762], [18.08161502441385, 45.27150055580597], [18.200987583010544, 45.22540517840622], [18.326664666141426, 45.246385810456786], [18.48665490080299, 45.21160757093264], [18.536936069244177, 45.19352082052944], [18.5023128602503, 45.13926056572251], [18.541121053000097, 45.0552871710001], [18.237883748000115, 45.157451477000066], [18.153651164000024, 45.09755849300008], [18.003479451000118, 45.14933827800006], [17.911185343000056, 45.08107371100003], [17.835737752000057, 45.06443389900009], [17.68473921700013, 45.16396270800003], [17.57239465300009, 45.120399476], [17.481857544000093, 45.114405009000066], [17.496223592000092, 45.14169016500007], [17.44775109900013, 45.13430043600006], [17.443306925000115, 45.16205068000001], [17.382432088000087, 45.13962310900003], [17.268950643000068, 45.18954254200007], [17.245489543000076, 45.15538442000009], [17.197843872000135, 45.15295562800004], [17.18709517400012, 45.148563131000046]]]}}, {"type": "Feature", "properties": {"id": "kzz", "name": "Karlovacka", "name_en": "Karlovac", "iso_3166_2": "HR-04"}, "geometry": {"type": "Polygon", "coordinates": [[[15.802568518622195, 45.19647338204095], [15.755968059000054, 45.04221303300007], [15.763616170000148, 44.975550436000034], [15.734108148572204, 44.93444011182169], [15.552467074695699, 44.949142971470906], [15.532778354737275, 44.92749054585198], [15.566781447006178, 44.878552965447], [15.464203729418557, 44.92418325485329], [15.376508823123686, 45.026295885346826], [15.194194370174046, 45.12577301751071], [15.125464715224439, 45.105257473453605], [15.008004185444804, 45.12406769516798], [14.968265007623984, 45.15801911149276], [14.986248407038318, 45.24106313695421], [14.970590447591064, 45.27351593741054], [14.99405154834028, 45.31180817350838], [15.033584018787394, 45.328603014517455], [15.122364128901438, 45.29330801015652], [15.221014438765337, 45.37480174380539], [15.225849151816874, 45.436449692699114], [15.325193318000117, 45.45283396400002], [15.361366821000047, 45.482031149000065], [15.296667928000062, 45.52295888300007], [15.268555948000113, 45.60166208900007], [15.373769165000112, 45.64021270800005], [15.35003446292012, 45.669619115729574], [15.42089887907997, 45.6952989770661], [15.568021681355503, 45.60202301754822], [15.612205030837515, 45.624088854317165], [15.745995313632818, 45.59690705051992], [15.740879346604572, 45.55422231690636], [15.812864618407389, 45.523423162848644], [15.842526890003967, 45.46590729388646], [15.820926141228426, 45.40213857723353], [15.65752526188129, 45.41872671176833], [15.68067630426799, 45.35056549670031], [15.661556024191157, 45.268089911120455], [15.630550163659109, 45.235740465250274], [15.639386833735387, 45.210677394945776], [15.802064242670667, 45.19672475784125], [15.802568518622195, 45.19647338204095]]]}}, {"type": "Feature", "properties": {"id": "zdz", "name": "Zadarska", "name_en": "Zadar", "iso_3166_2": "HR-13"}, "geometry": {"type": "Polygon", "coordinates": [[[15.734108148572204, 44.93444011182169], [15.773434692000109, 44.84501576800007], [15.716073852000108, 44.80320953400012], [15.728476196000088, 44.76910308800005], [15.805680786000067, 44.696652730000054], [15.888776489000065, 44.72424794500007], [15.968978312000047, 44.639240214000054], [16.028302856000067, 44.624719137000014], [16.044735962000118, 44.589372457000096], [16.00608199000004, 44.54100331600007], [16.11646285000012, 44.52146962500005], [16.159664347000046, 44.41610138000003], [16.13827030500005, 44.37760243800007], [16.202865844000087, 44.35977406800002], [16.18756962000012, 44.28241445000002], [16.21578495300011, 44.208155416000025], [16.32688928200008, 44.08237498000007], [16.414015747000064, 44.05581329300004], [16.439647258000036, 44.01400706000008], [16.527446322689627, 43.96785919894285], [16.470343865776783, 43.96429352552576], [16.3997538588535, 43.919851792726035], [16.324616326582202, 43.9411941599825], [16.191652866086883, 43.920471910350386], [16.154084100400894, 43.944501450981136], [16.141371697645695, 44.03472850191878], [16.03274783704302, 44.012714341993274], [16.001535271835337, 43.9496690939535], [15.906450636287843, 43.90936147715041], [15.781703729143771, 43.94388133425616], [15.785889520185208, 43.91509756090369], [15.739949172416345, 43.86920888907895], [15.681761508986426, 43.88941437387422], [15.633185662888025, 43.86373118774412], [15.575153029088995, 43.89664907529459], [15.546879939357723, 43.87656366348227], [15.455088738000086, 43.92804596600007], [15.144541863000086, 44.19546133000006], [15.152191602000073, 44.23529694200005], [15.110362175000091, 44.26434967700004], [15.140635613000086, 44.282456773000035], [15.176605665000068, 44.24994538000004], [15.207774285000085, 44.272772528000075], [15.185394727000073, 44.28538646000004], [15.206553582000083, 44.28538646000004], [15.198090040000068, 44.301662502000056], [15.295258009000065, 44.25067780200004], [15.281748894000089, 44.28538646000004], [15.302744988000086, 44.29913971600007], [15.261241082000083, 44.33258698100008], [15.408539259000065, 44.27228424700007], [15.525238477000073, 44.26068756700005], [15.293788949300563, 44.36480642697501], [15.344262730040953, 44.4133617208667], [15.410977004285314, 44.375431219974814], [15.501927523836116, 44.36742137309784], [15.545955844586558, 44.33047272413688], [15.624504022442693, 44.39005564974843], [15.633960809243945, 44.421681627005455], [15.591121046898763, 44.4572350119862], [15.65349449957148, 44.4949588082024], [15.562750684696312, 44.581671860767756], [15.527817417339918, 44.68890045828948], [15.47257531060211, 44.74688141524507], [15.599492628981636, 44.78935944328367], [15.525491978272157, 44.83328441034723], [15.566781447006178, 44.878552965447], [15.532778354737275, 44.92749054585198], [15.552467074695699, 44.949142971470906], [15.733437941407828, 44.93405345280456], [15.734108148572204, 44.93444011182169]]]}}, {"type": "Feature", "properties": {"id": "vsz", "name": "Vukovarsko-Srijemska", "name_en": "Vukovar-Syrmia", "iso_3166_2": "HR-16"}, "geometry": {"type": "Polygon", "coordinates": [[[18.648711385000126, 45.06267690000003], [18.61667199700014, 45.09766184500002], [18.534802704681056, 45.08841171822621], [18.51161461831998, 45.11373240832398], [18.50804894400352, 45.16747589829407], [18.558485142075654, 45.19543284844718], [18.567941928876905, 45.226645412755545], [18.507428827278545, 45.249641425511356], [18.51006432470882, 45.287623603246686], [18.629385207361395, 45.31888784439849], [18.661372918025734, 45.39557567028095], [18.795731641601947, 45.41815827098742], [18.79061567637234, 45.462341620469374], [18.873194613840326, 45.4806350773469], [18.94362959203204, 45.43061229132417], [19.002282341656723, 45.443686428385945], [19.031318659791033, 45.4162010447496], [18.97552740798483, 45.39112963434833], [18.97749138712034, 45.371208750191805], [19.08295634672233, 45.33922435741553], [19.1041470909989, 45.29872565166281], [19.158482332733676, 45.27617137937752], [19.397296183000037, 45.223287253000066], [19.40535770700012, 45.17967234300001], [19.204543091000062, 45.16287750300005], [19.143874959000073, 45.1995160930001], [19.121860799000103, 45.19579539000007], [19.137673787000097, 45.14603098600007], [19.044862915000067, 45.137245993000064], [19.082276652000132, 45.08494944300007], [19.087237589000097, 44.97710072800005], [19.131679321000064, 44.95317454000006], [19.066670369000093, 44.90568389900007], [18.991429484000065, 44.91493398000007], [19.00496870900014, 44.86330922500004], [18.889626912000097, 44.86119049100007], [18.81779667200007, 44.88754547200004], [18.772631469000117, 44.942477519000064], [18.80456750500008, 44.97384511300008], [18.78896122200004, 45.005729472000056], [18.738318319000086, 45.015909729], [18.684058065000045, 45.08479441400003], [18.658116495000087, 45.0662942500001], [18.648711385000126, 45.06267690000003]]]}}, {"type": "Feature", "properties": {"id": "sdz", "name": "Splitsko-Dalmatinska", "name_en": "Split-Dalmatia", "iso_3166_2": "HR-17"}, "geometry": {"type": "Polygon", "coordinates": [[[16.527446322689627, 43.96785919894285], [16.678599081000044, 43.840684306000085], [16.71260217300008, 43.771515401], [17.030515585000074, 43.548479919], [17.142756795000054, 43.489336243000125], [17.270500936000076, 43.46321380700003], [17.286417277000083, 43.43737559], [17.2676070550001, 43.353323873000065], [17.289931275000043, 43.30343027800002], [17.450913269931448, 43.148151597518165], [17.349359979079736, 43.15622915345267], [17.40630740726101, 43.1005219587214], [17.365369279598795, 43.07924749307457], [17.316254102000073, 43.12726471600007], [17.073496941000087, 43.23895905200004], [16.88062584700009, 43.405951239000046], [16.625824415000068, 43.44904205900008], [16.524668816000087, 43.51080963700008], [16.391449415000068, 43.51080963700008], [16.45679772200009, 43.54588450700004], [16.11768639400009, 43.52448151200008], [16.17237389400009, 43.48969147300005], [16.113129102000073, 43.47890859600005], [16.012795521506927, 43.503973700000074], [16.08271894712169, 43.545662747238], [16.048405795590952, 43.60250682173239], [16.16059532961077, 43.6829153515622], [16.238678420372764, 43.67164988873134], [16.350557896030068, 43.715936591000855], [16.350402866399122, 43.773194078443964], [16.431999952835554, 43.81877269100687], [16.34290978435905, 43.88481517258214], [16.350867954392584, 43.926207994103606], [16.410450880903397, 43.92259064384314], [16.494218376776644, 43.97023631395473], [16.527446322689627, 43.96785919894285]]]}}, {"type": "Feature", "properties": {"id": "vaz", "name": "Varaždinska", "name_en": "Varaždin", "iso_3166_2": "HR-05"}, "geometry": {"type": "Polygon", "coordinates": [[[16.088654305000148, 46.37308560000004], [16.143851359000053, 46.39471445800005], [16.208653605000052, 46.367093404000045], [16.279936481000078, 46.378661362000074], [16.330197380704533, 46.36182160098605], [16.361254917180645, 46.31996369147117], [16.483831413988526, 46.30177358738115], [16.72045779768922, 46.31138540291397], [16.772289259741513, 46.28735586228322], [16.748879835835737, 46.23790151614202], [16.69549808107155, 46.21020294930662], [16.596020948907665, 46.20312327751719], [16.485071649237227, 46.142868557437964], [16.349627720043202, 46.12250804301175], [16.35923953557608, 46.02463288040309], [16.293765495681043, 46.012798976791316], [16.255886671632595, 46.06106476542658], [16.245654737576047, 46.19097931644228], [16.194908482040773, 46.212425034687556], [16.158114861811384, 46.187568670857445], [16.019570347193735, 46.18539826142063], [15.883764682793867, 46.23831492819136], [15.879323324000012, 46.25930809400005], [16.0523840730001, 46.318595073000054], [16.05796512800012, 46.37753204400006], [16.088654305000148, 46.37308560000004]]]}}, {"type": "Feature", "properties": {"id": "kzz2", "name": "Krapinsko-Zagorska", "name_en": "Krapina-Zagorje", "iso_3166_2": "HR-02"}, "geometry": {"type": "Polygon", "coordinates": [[[15.799526193000133, 46.24860696100005], [15.879323324000012, 46.25930809400005], [15.887485385841842, 46.232682197225586], [15.95533654074876, 46.19563019547712], [16.019570347193735, 46.18539826142063], [16.158114861811384, 46.187568670857445], [16.194908482040773, 46.212425034687556], [16.245654737576047, 46.19097931644228], [16.255886671632595, 46.06106476542658], [16.19041263173756, 46.05853261988449], [16.204675327204598, 46.00422068913349], [16.165091179913986, 46.00380727798347], [16.166021355900853, 45.97833079742833], [15.965568474805252, 45.911048082403056], [15.919628127036447, 45.95709178295937], [15.822476433940267, 45.98205150047636], [15.675380807000067, 45.972486394000086], [15.697987101000109, 46.036209208000045], [15.603832641000025, 46.0909862270001], [15.589983358000069, 46.13868357400007], [15.639799438000097, 46.20767161000002], [15.749766886000089, 46.210772197000054], [15.789144328000077, 46.24306996700004], [15.799526193000133, 46.24860696100005]]]}}, {"type": "Feature", "properties": {"id": "zgz", "name": "Zagrebacka", "name_en": "Zagreb", "iso_3166_2": "HR-01"}, "geometry": {"type": "Polygon", "coordinates": [[[15.549748078810751, 45.82369277989784], [15.676076294000069, 45.84169911700009], [15.659436483000036, 45.88882802400009], [15.675380807000067, 45.972486394000086], [15.822476433940267, 45.98205150047636], [15.919628127036447, 45.95709178295937], [15.939471876625817, 45.93383738958386], [15.820616081966591, 45.91368357983333], [15.81425988058902, 45.8779751652217], [15.765839064121508, 45.846297512020556], [15.846919385721037, 45.80940053990298], [15.813240815611152, 45.77571713773568], [15.833690985250769, 45.755266968096066], [15.813240815611152, 45.72459171453596], [15.78242719865625, 45.73808706346716], [15.773125440586625, 45.700363268150284], [15.921488478110746, 45.62238353107506], [15.966617085210316, 45.716922900471445], [16.138116081691805, 45.808315335184545], [16.19196292534872, 45.79400096287412], [16.226844516761048, 45.84960480391857], [16.13625573061745, 45.970372626495475], [16.172067498016588, 45.982878322776344], [16.165091179913986, 46.00380727798347], [16.204675327204598, 46.00422068913349], [16.19041263173756, 46.05853261988449], [16.241779005796445, 46.0637002628568], [16.293765495681043, 46.012798976791316], [16.35923953557608, 46.02463288040309], [16.443627149972997, 46.004065660401864], [16.469413689789917, 45.95884878214554], [16.514113804108774, 45.97765900296059], [16.603772414265507, 45.92572418902006], [16.692552524379494, 45.92422557225234], [16.69363772999725, 45.85368724217244], [16.65792931538556, 45.820149237897], [16.622065871143036, 45.841853339460044], [16.599276563962235, 45.78165029622414], [16.531787144261273, 45.788419907852415], [16.49669884637467, 45.76506216079008], [16.4371159198638, 45.82252635380814], [16.381563754763476, 45.81203603823258], [16.37024661598855, 45.745115058413205], [16.29392052621131, 45.72785513030999], [16.278210889920615, 45.61303009706131], [16.227051222336, 45.59835399044425], [16.147882927754893, 45.63411408100001], [16.049180941946872, 45.597475491300884], [16.110779250062308, 45.50636994121976], [16.046545443617333, 45.47588084642388], [15.935906203208674, 45.47479564080618], [15.922883742091017, 45.51127920177373], [15.85989017089463, 45.548951321146546], [15.784029168211532, 45.52063263578748], [15.740879346604572, 45.55422231690636], [15.745995313632818, 45.59690705051992], [15.612205030837515, 45.624088854317165], [15.568021681355503, 45.60202301754822], [15.430510694612849, 45.69411041956022], [15.35003446292012, 45.669619115729574], [15.28302535000006, 45.680106913000074], [15.248918904000107, 45.71183624300009], [15.26349165800005, 45.73038808300005], [15.429062947000148, 45.77529490200003], [15.440328410000092, 45.81146840400005], [15.523527466000104, 45.82681630500004], [15.549748078810751, 45.82369277989784]]]}}, {"type": "Feature", "properties": {"id": "pgz", "name": "Primorsko-Goranska", "name_en": "Primorje-Gorski", "iso_3166_2": "HR-08"}, "geometry": {"type": "Polygon", "coordinates": [[[15.184220011000036, 45.42560048500012], [15.225849151816874, 45.436449692699114], [15.23439863508895, 45.41324901043345], [15.180861850693816, 45.32911977845498], [15.119883661102051, 45.29320465826834], [15.029243198115068, 45.32855133677475], [14.970590447591064, 45.27351593741054], [14.986248407038318, 45.24106313695421], [14.968885125248335, 45.15310985003953], [15.027227817409823, 45.09740265620758], [15.022576939274302, 45.0770421408821], [14.926510450896558, 45.07755890571889], [14.881342825669313, 45.035600343994496], [14.842539910000085, 45.105536200000074], [14.65788821700005, 45.196600653000075], [14.576019727000073, 45.26227448100008], [14.570811394000089, 45.29364655200004], [14.534353061000047, 45.31268952000005], [14.555430535000085, 45.29588450700004], [14.533050977000073, 45.28388092700004], [14.345876498000052, 45.351629950000074], [14.29078209700009, 45.32050202000005], [14.234681653735322, 45.154574259294634], [14.211153599359136, 45.161533108066465], [14.203557162732864, 45.403947252363764], [14.12986657128522, 45.440947577268844], [14.117320712000065, 45.47297572500007], [14.218697551000076, 45.49717234400008], [14.326804646000141, 45.474899801000035], [14.41124393700008, 45.49319325800009], [14.468914835000078, 45.52559438100009], [14.49857710800012, 45.59618438800008], [14.580949341000093, 45.66780792200002], [14.603066853000115, 45.603574117000065], [14.669832804000066, 45.56455841100008], [14.668489217000086, 45.53396596300006], [14.781247192000109, 45.493348288000035], [14.79716353300006, 45.46518463200009], [14.881602823000094, 45.46978383400004], [14.922633911000048, 45.51494903600009], [15.056165812000131, 45.47991241500007], [15.1392615150001, 45.43004465800003], [15.184220011000036, 45.42560048500012]]]}}, {"type": "Feature", "properties": {"id": "szz", "name": "Šibensko-Kninska", "name_en": "Šibenik-Knin", "iso_3166_2": "HR-15"}, "geometry": {"type": "Polygon", "coordinates": [[[16.012795521506927, 43.503973700000074], [15.959483269000089, 43.503973700000074], [15.987315300000091, 43.544907945000034], [15.959483269000089, 43.53815338700008], [15.917979363000086, 43.57290273600006], [15.918955925000091, 43.62872955900008], [15.966319207000083, 43.64118073100008], [15.904795769000089, 43.64801666900007], [15.952972852000073, 43.65086497600004], [15.932139519000089, 43.66844310100004], [15.950450066000087, 43.68854401200008], [15.931162957000083, 43.67649974200003], [15.792165561000047, 43.75446198100008], [15.706309441000087, 43.76341380400004], [15.617442254000082, 43.825506903000075], [15.678884311000047, 43.81928131700005], [15.546879939357723, 43.87656366348227], [15.575153029088995, 43.89664907529459], [15.633185662888025, 43.86373118774412], [15.681761508986426, 43.88941437387422], [15.739949172416345, 43.86920888907895], [15.785889520185208, 43.91509756090369], [15.781703729143771, 43.94388133425616], [15.906450636287843, 43.90936147715041], [16.001535271835337, 43.9496690939535], [16.03274783704302, 44.012714341993274], [16.141371697645695, 44.03472850191878], [16.170103794154784, 43.92687978857134], [16.344511753014956, 43.93633657537265], [16.34290978435905, 43.88481517258214], [16.431999952835554, 43.81877269100687], [16.350402866399122, 43.773194078443964], [16.341669549110406, 43.70999380077325], [16.238678420372764, 43.67164988873134], [16.169276970955423, 43.68797964084774], [16.064270460613272, 43.61604604768695], [16.047630649235032, 43.58581533530946], [16.08271894712169, 43.545662747238], [16.01290408655433, 43.50406321924214], [16.012795521506927, 43.503973700000074]]]}}, {"type": "Feature", "properties": {"id": "lsz", "name": "Licko-Senjska", "name_en": "Lika-Senj", "iso_3166_2": "HR-09"}, "geometry": {"type": "Polygon", "coordinates": [[[15.293788949300563, 44.36480642697501], [15.007334832000083, 44.56972890800006], [14.901377800000091, 44.69017161700003], [14.881358269000089, 44.84406159100007], [14.92164147200009, 44.95880768400008], [14.881342825669313, 45.035600343994496], [14.890233594604695, 45.061332506390045], [15.018856235327007, 45.0738898795143], [15.008004185444804, 45.12406769516798], [15.125464715224439, 45.105257473453605], [15.190318638394444, 45.126858222229146], [15.376508823123686, 45.026295885346826], [15.464203729418557, 44.92418325485329], [15.566781447006178, 44.878552965447], [15.525491978272157, 44.83328441034723], [15.599492628981636, 44.78935944328367], [15.472730340233, 44.73783804049316], [15.527817417339918, 44.68890045828948], [15.562750684696312, 44.581671860767756], [15.65349449957148, 44.4949588082024], [15.591121046898763, 44.4572350119862], [15.630860222920944, 44.40152781815425], [15.545955844586558, 44.33047272413688], [15.501927523836116, 44.36742137309784], [15.410977004285314, 44.375431219974814], [15.344262730040953, 44.4133617208667], [15.293981560700445, 44.36494090439919], [15.293788949300563, 44.36480642697501]]]}}, {"type": "Feature", "properties": {"id": "bbz", "name": "Bjelovarsko-bilogorska", "name_en": "Bjelovar-Bilogora", "iso_3166_2": "HR-07"}, "geometry": {"type": "Polygon", "coordinates": [[[16.84489464737004, 46.08163198542775], [16.912900831907848, 46.03657013590305], [16.910730421571657, 46.00070669255979], [16.994342888713334, 45.96101919248173], [16.99620324068701, 45.92711945210101], [17.058576694259045, 45.930891831992426], [17.277219679444613, 45.803302720943805], [17.321764764132524, 45.75054108290465], [17.35793826673762, 45.753589993283526], [17.385223423322316, 45.702533678486475], [17.432248975809557, 45.71860504818443], [17.489816521615182, 45.69302521394246], [17.424497511351035, 45.59235952427258], [17.44232588113448, 45.558149726428724], [17.42868330239247, 45.52331981096046], [17.39933108915841, 45.509212145124366], [17.222907748693615, 45.506679999582275], [17.180378044711006, 45.52833242430194], [17.02586551318285, 45.50316600210931], [16.94421674990309, 45.546987617284685], [16.929178908080132, 45.47588084642388], [16.907009719423, 45.46766429307263], [16.83605797729382, 45.4944843607646], [16.86727054160218, 45.526523749171645], [16.78670698394012, 45.61318512579288], [16.50165978377197, 45.71751984346599], [16.49669884637467, 45.76506216079008], [16.523570590910026, 45.785577703947865], [16.599276563962235, 45.78165029622414], [16.622065871143036, 45.841853339460044], [16.6449068542679, 45.820149237897], [16.688366733338057, 45.83916616518633], [16.693482700366303, 45.965980129879085], [16.71921756423916, 46.01874176701892], [16.75802656427453, 46.05295156486278], [16.80520714729198, 46.0463886579102], [16.83931359234839, 46.081011867803454], [16.84489464737004, 46.08163198542775]]]}}, {"type": "Feature", "properties": {"id": "gzg", "name": "Grad Zagreb", "name_en": "Zagreb", "iso_3166_2": "HR-21"}, "geometry": {"type": "Polygon", "coordinates": [[[15.965568474805252, 45.911048082403056], [16.13625573061745, 45.970372626495475], [16.226844516761048, 45.84960480391857], [16.189792515012527, 45.791158758969516], [16.138116081691805, 45.808315335184545], [15.966617085210316, 45.716922900471445], [15.921488478110746, 45.62238353107506], [15.773125440586625, 45.700363268150284], [15.78242719865625, 45.73808706346716], [15.813240815611152, 45.72459171453596], [15.833690985250769, 45.755266968096066], [15.813240815611152, 45.77571713773568], [15.846919385721037, 45.80940053990298], [15.765839064121508, 45.846297512020556], [15.81425988058902, 45.8779751652217], [15.820616081966591, 45.91368357983333], [15.939471876625817, 45.93383738958386], [15.955801628742165, 45.9142003437708], [15.965568474805252, 45.911048082403056]]]}}, {"type": "Feature", "properties": {"id": "psz", "name": "Brodsko-Posavska", "name_en": "Požega-Slavonia", "iso_3166_2": "HR-12"}, "geometry": {"type": "Polygon", "coordinates": [[[17.879146762613004, 45.47071320255225], [18.083216993969074, 45.63029002516453], [18.20765384275063, 45.59773387281996], [18.22300174293605, 45.57323924419575], [18.194269647326337, 45.53510203682953], [18.225482211634755, 45.51350128805399], [18.36469852072014, 45.494174303301406], [18.394309116372597, 45.52295807575456], [18.443970168088754, 45.47520905195614], [18.304443800640854, 45.461824856531905], [18.174270868106078, 45.41846832934988], [18.075878940660573, 45.35056549670031], [18.10957197366764, 45.31227326150179], [18.08161502441385, 45.27150055580597], [17.902091099424695, 45.28633169205392], [17.854652133988793, 45.229384263872646], [17.785095655839825, 45.21811880104178], [17.759205763235343, 45.186389471896575], [17.708769566062585, 45.19352082052944], [17.701638218329094, 45.25873647710671], [17.577149691804834, 45.27682322930855], [17.391579623800567, 45.387255764142196], [17.237325473791543, 45.37878082927182], [17.14379113095589, 45.341935533098365], [17.051445347424817, 45.384723619499425], [17.05749148864129, 45.425186265933405], [17.022919955591476, 45.418623358980824], [16.929178908080132, 45.47588084642388], [16.94421674990309, 45.546987617284685], [17.02586551318285, 45.50316600210931], [17.180378044711006, 45.52833242430194], [17.222907748693615, 45.506679999582275], [17.39933108915841, 45.509212145124366], [17.42868330239247, 45.52331981096046], [17.430543654366147, 45.57468618412008], [17.50035851403419, 45.55535919936756], [17.51710167819988, 45.57633983051875], [17.79925499762004, 45.47138499612066], [17.87558108919592, 45.47190176005813], [17.879146762613004, 45.47071320255225]]]}}]}